start=new Date('2021-09-08T00:00:00.000Z').valueOf();
sats=[{"TLE_LINE2":"2 46360  53.0558 150.9502 0001954  73.4203 286.7001 15.06391923 57181","MEAN_MOTION":"15.06391923","RA_OF_ASC_NODE":"150.9502","OBJECT_NAME":"STARLINK-1713","TLE_LINE1":"1 46360U 20062AM  21250.88614712 -.00000716  00000-0 -29136-4 0  9997","MEAN_ELEMENT_THEORY":"SGP4","COUNTRY_CODE":"US","REV_AT_EPOCH":"5718","PERIOD":"95.593","MEAN_MOTION_DDOT":"0.0000000000000","SITE":"AFETR","EPOCH":"2021-09-07T21:16:03.111168","OBJECT_TYPE":"PAYLOAD","DECAY_DATE":null,"OBJECT_ID":"2020-062AM","RCS_SIZE":"LARGE","FILE":"3110443","EPHEMERIS_TYPE":"0","ELEMENT_SET_NO":"999","BSTAR":"-0.00002913600000","SEMIMAJOR_AXIS":"6925.373","NORAD_CAT_ID":"46360","ECCENTRICITY":"0.00019540","CENTER_NAME":"EARTH","APOAPSIS":"548.592","PERIAPSIS":"545.885","GP_ID":"184283387","MEAN_MOTION_DOT":"-0.00000716","CLASSIFICATION_TYPE":"U","LAUNCH_DATE":"2020-09-03","TIME_SYSTEM":"UTC","REF_FRAME":"TEME","ARG_OF_PERICENTER":"73.4203","INCLINATION":"53.0558","MEAN_ANOMALY":"286.7001"},{"TLE_LINE1":"1 46361U 20062AN  21250.85665184  .00002842  00000-0  20958-3 0  9996","OBJECT_NAME":"STARLINK-1722","RA_OF_ASC_NODE":"151.0792","TLE_LINE2":"2 46361  53.0541 151.0792 0002045  67.5273 292.5933 15.06403831 57170","MEAN_MOTION":"15.06403831","ELEMENT_SET_NO":"999","EPHEMERIS_TYPE":"0","FILE":"3110443","DECAY_DATE":null,"OBJECT_ID":"2020-062AN","SITE":"AFETR","OBJECT_TYPE":"PAYLOAD","EPOCH":"2021-09-07T20:33:34.718976","RCS_SIZE":"LARGE","COUNTRY_CODE":"US","MEAN_ELEMENT_THEORY":"SGP4","REV_AT_EPOCH":"5717","PERIOD":"95.592","MEAN_MOTION_DDOT":"0.0000000000000","GP_ID":"184283639","MEAN_MOTION_DOT":"0.00002842","CLASSIFICATION_TYPE":"U","APOAPSIS":"548.618","CENTER_NAME":"EARTH","PERIAPSIS":"545.786","NORAD_CAT_ID":"46361","ECCENTRICITY":"0.00020450","BSTAR":"0.00020958000000","SEMIMAJOR_AXIS":"6925.337","ARG_OF_PERICENTER":"67.5273","MEAN_ANOMALY":"292.5933","INCLINATION":"53.0541","REF_FRAME":"TEME","LAUNCH_DATE":"2020-09-03","TIME_SYSTEM":"UTC"},{"ELEMENT_SET_NO":"999","EPHEMERIS_TYPE":"0","FILE":"3110443","RCS_SIZE":"LARGE","DECAY_DATE":null,"OBJECT_ID":"2020-062AP","EPOCH":"2021-09-07T20:01:43.851648","SITE":"AFETR","OBJECT_TYPE":"PAYLOAD","MEAN_MOTION_DDOT":"0.0000000000000","PERIOD":"95.592","MEAN_ELEMENT_THEORY":"SGP4","COUNTRY_CODE":"US","REV_AT_EPOCH":"5717","TLE_LINE1":"1 46362U 20062AP  21250.83453532  .00001251  00000-0  10290-3 0  9998","OBJECT_NAME":"STARLINK-1726","RA_OF_ASC_NODE":"151.1772","TLE_LINE2":"2 46362  53.0531 151.1772 0002042  67.5812 292.5393 15.06395970 57179","MEAN_MOTION":"15.06395970","MEAN_ANOMALY":"292.5393","INCLINATION":"53.0531","ARG_OF_PERICENTER":"67.5812","REF_FRAME":"TEME","TIME_SYSTEM":"UTC","LAUNCH_DATE":"2020-09-03","CLASSIFICATION_TYPE":"U","MEAN_MOTION_DOT":"0.00001251","GP_ID":"184284389","PERIAPSIS":"545.812","CENTER_NAME":"EARTH","APOAPSIS":"548.640","ECCENTRICITY":"0.00020420","NORAD_CAT_ID":"46362","SEMIMAJOR_AXIS":"6925.361","BSTAR":"0.00010290000000"},{"OBJECT_NAME":"STARLINK-1739","TLE_LINE1":"1 46363U 20062AQ  21250.82717245 -.00000243  00000-0  25793-5 0  9999","TLE_LINE2":"2 46363  53.0533 151.2097 0002242  67.2107 292.9119 15.06392237 57172","MEAN_MOTION":"15.06392237","RA_OF_ASC_NODE":"151.2097","FILE":"3110443","EPHEMERIS_TYPE":"0","ELEMENT_SET_NO":"999","COUNTRY_CODE":"US","MEAN_ELEMENT_THEORY":"SGP4","REV_AT_EPOCH":"5717","MEAN_MOTION_DDOT":"0.0000000000000","PERIOD":"95.593","EPOCH":"2021-09-07T19:51:07.699680","SITE":"AFETR","OBJECT_TYPE":"PAYLOAD","OBJECT_ID":"2020-062AQ","DECAY_DATE":null,"RCS_SIZE":"LARGE","APOAPSIS":"548.790","CENTER_NAME":"EARTH","PERIAPSIS":"545.685","GP_ID":"184283137","MEAN_MOTION_DOT":"-0.00000243","CLASSIFICATION_TYPE":"U","BSTAR":"0.00000257930000","SEMIMAJOR_AXIS":"6925.372","NORAD_CAT_ID":"46363","ECCENTRICITY":"0.00022420","ARG_OF_PERICENTER":"67.2107","INCLINATION":"53.0533","MEAN_ANOMALY":"292.9119","LAUNCH_DATE":"2020-09-03","TIME_SYSTEM":"UTC","REF_FRAME":"TEME"},{"PERIAPSIS":"542.794","APOAPSIS":"551.628","CENTER_NAME":"EARTH","MEAN_MOTION_DOT":"-0.00000099","CLASSIFICATION_TYPE":"U","GP_ID":"184256867","SEMIMAJOR_AXIS":"6925.346","BSTAR":"0.00001236300000","ECCENTRICITY":"0.00063780","NORAD_CAT_ID":"46364","MEAN_ANOMALY":"25.3866","INCLINATION":"53.0547","ARG_OF_PERICENTER":"334.6810","TIME_SYSTEM":"UTC","LAUNCH_DATE":"2020-09-03","REF_FRAME":"TEME","OBJECT_NAME":"STARLINK-1763","TLE_LINE1":"1 46364U 20062AR  21250.37931359 -.00000099  00000-0  12363-4 0  9991","MEAN_MOTION":"15.06400694","TLE_LINE2":"2 46364  53.0547 133.2232 0006378 334.6810  25.3866 15.06400694 57382","RA_OF_ASC_NODE":"133.2232","EPHEMERIS_TYPE":"0","FILE":"3110255","ELEMENT_SET_NO":"999","MEAN_MOTION_DDOT":"0.0000000000000","PERIOD":"95.592","COUNTRY_CODE":"US","REV_AT_EPOCH":"5738","MEAN_ELEMENT_THEORY":"SGP4","RCS_SIZE":"LARGE","OBJECT_ID":"2020-062AR","DECAY_DATE":null,"SITE":"AFETR","EPOCH":"2021-09-07T09:06:12.694176","OBJECT_TYPE":"PAYLOAD"},{"OBJECT_NAME":"STARLINK-1550","TLE_LINE1":"1 46365U 20062AS  21250.87139262  .00001450  00000-0  11627-3 0  9992","MEAN_MOTION":"15.06396932","TLE_LINE2":"2 46365  53.0538 151.0108 0001889  81.1304 278.9899 15.06396932 57175","RA_OF_ASC_NODE":"151.0108","FILE":"3110443","EPHEMERIS_TYPE":"0","ELEMENT_SET_NO":"999","MEAN_MOTION_DDOT":"0.0000000000000","PERIOD":"95.592","MEAN_ELEMENT_THEORY":"SGP4","COUNTRY_CODE":"US","REV_AT_EPOCH":"5717","RCS_SIZE":"LARGE","EPOCH":"2021-09-07T20:54:48.322368","SITE":"AFETR","OBJECT_TYPE":"PAYLOAD","OBJECT_ID":"2020-062AS","DECAY_DATE":null,"PERIAPSIS":"545.915","APOAPSIS":"548.531","CENTER_NAME":"EARTH","CLASSIFICATION_TYPE":"U","MEAN_MOTION_DOT":"0.00001450","GP_ID":"184284139","SEMIMAJOR_AXIS":"6925.358","BSTAR":"0.00011627000000","ECCENTRICITY":"0.00018890","NORAD_CAT_ID":"46365","INCLINATION":"53.0538","MEAN_ANOMALY":"278.9899","ARG_OF_PERICENTER":"81.1304","TIME_SYSTEM":"UTC","LAUNCH_DATE":"2020-09-03","REF_FRAME":"TEME"},{"ELEMENT_SET_NO":"999","EPHEMERIS_TYPE":"0","FILE":"3110443","OBJECT_ID":"2020-062AT","DECAY_DATE":null,"SITE":"AFETR","OBJECT_TYPE":"PAYLOAD","EPOCH":"2021-09-07T20:38:53.565216","RCS_SIZE":"LARGE","COUNTRY_CODE":"US","REV_AT_EPOCH":"5717","MEAN_ELEMENT_THEORY":"SGP4","MEAN_MOTION_DDOT":"0.0000000000000","PERIOD":"95.592","TLE_LINE1":"1 46366U 20062AT  21250.86034219  .00000054  00000-0  22569-4 0  9995","OBJECT_NAME":"STARLINK-1651","RA_OF_ASC_NODE":"151.0617","TLE_LINE2":"2 46366  53.0540 151.0617 0001969  80.8855 279.2356 15.06399263 57172","MEAN_MOTION":"15.06399263","ARG_OF_PERICENTER":"80.8855","MEAN_ANOMALY":"279.2356","INCLINATION":"53.0540","REF_FRAME":"TEME","LAUNCH_DATE":"2020-09-03","TIME_SYSTEM":"UTC","GP_ID":"184283890","CLASSIFICATION_TYPE":"U","MEAN_MOTION_DOT":"0.00000054","APOAPSIS":"548.579","CENTER_NAME":"EARTH","PERIAPSIS":"545.852","NORAD_CAT_ID":"46366","ECCENTRICITY":"0.00019690","BSTAR":"0.00002256900000","SEMIMAJOR_AXIS":"6925.351"},{"OBJECT_NAME":"STARLINK-1658","TLE_LINE1":"1 46368U 20062AV  21250.52814366  .00000323  00000-0  40621-4 0  9997","MEAN_MOTION":"15.06400658","TLE_LINE2":"2 46368  53.0549 177.5534 0001800  65.1433 294.9743 15.06400658 56787","RA_OF_ASC_NODE":"177.5534","FILE":"3110255","EPHEMERIS_TYPE":"0","ELEMENT_SET_NO":"999","PERIOD":"95.592","MEAN_MOTION_DDOT":"0.0000000000000","COUNTRY_CODE":"US","REV_AT_EPOCH":"5678","MEAN_ELEMENT_THEORY":"SGP4","RCS_SIZE":"LARGE","OBJECT_TYPE":"PAYLOAD","SITE":"AFETR","EPOCH":"2021-09-07T12:40:31.612224","OBJECT_ID":"2020-062AV","DECAY_DATE":null,"PERIAPSIS":"545.965","APOAPSIS":"548.458","CENTER_NAME":"EARTH","MEAN_MOTION_DOT":"0.00000323","CLASSIFICATION_TYPE":"U","GP_ID":"184257119","SEMIMAJOR_AXIS":"6925.347","BSTAR":"0.00004062100000","ECCENTRICITY":"0.00018000","NORAD_CAT_ID":"46368","INCLINATION":"53.0549","MEAN_ANOMALY":"294.9743","ARG_OF_PERICENTER":"65.1433","TIME_SYSTEM":"UTC","LAUNCH_DATE":"2020-09-03","REF_FRAME":"TEME"},{"DECAY_DATE":null,"OBJECT_ID":"2020-062AW","EPOCH":"2021-09-07T20:17:56.310432","SITE":"AFETR","OBJECT_TYPE":"PAYLOAD","RCS_SIZE":"LARGE","REV_AT_EPOCH":"5710","COUNTRY_CODE":"US","MEAN_ELEMENT_THEORY":"SGP4","MEAN_MOTION_DDOT":"0.0000000000000","PERIOD":"91.633","ELEMENT_SET_NO":"999","EPHEMERIS_TYPE":"0","FILE":"3110443","RA_OF_ASC_NODE":"156.2448","MEAN_MOTION":"15.71478122","TLE_LINE2":"2 46369  53.0519 156.2448 0000974  98.3409 261.7718 15.71478122 57109","TLE_LINE1":"1 46369U 20062AW  21250.84579063  .00006106  00000-0  51394-4 0  9999","OBJECT_NAME":"STARLINK-1662","REF_FRAME":"TEME","LAUNCH_DATE":"2020-09-03","TIME_SYSTEM":"UTC","ARG_OF_PERICENTER":"98.3409","MEAN_ANOMALY":"261.7718","INCLINATION":"53.0519","NORAD_CAT_ID":"46369","ECCENTRICITY":"0.00009740","BSTAR":"0.00005139400000","SEMIMAJOR_AXIS":"6732.809","GP_ID":"184283388","MEAN_MOTION_DOT":"0.00006106","CLASSIFICATION_TYPE":"U","APOAPSIS":"355.330","CENTER_NAME":"EARTH","PERIAPSIS":"354.018"},{"COUNTRY_CODE":"US","MEAN_ELEMENT_THEORY":"SGP4","REV_AT_EPOCH":"5683","MEAN_MOTION_DDOT":"0.0000000000000","PERIOD":"95.592","OBJECT_ID":"2020-062AX","DECAY_DATE":null,"SITE":"AFETR","OBJECT_TYPE":"PAYLOAD","EPOCH":"2021-09-07T21:20:41.199072","RCS_SIZE":"LARGE","EPHEMERIS_TYPE":"0","FILE":"3110443","ELEMENT_SET_NO":"999","MEAN_MOTION":"15.06403089","TLE_LINE2":"2 46370  53.0548 175.9321 0002054  64.3809 295.7392 15.06403089 56831","RA_OF_ASC_NODE":"175.9321","OBJECT_NAME":"STARLINK-1670","TLE_LINE1":"1 46370U 20062AX  21250.88936573  .00000353  00000-0  42577-4 0  9999","LAUNCH_DATE":"2020-09-03","TIME_SYSTEM":"UTC","REF_FRAME":"TEME","ARG_OF_PERICENTER":"64.3809","MEAN_ANOMALY":"295.7392","INCLINATION":"53.0548","BSTAR":"0.00004257700000","SEMIMAJOR_AXIS":"6925.339","NORAD_CAT_ID":"46370","ECCENTRICITY":"0.00020540","APOAPSIS":"548.627","CENTER_NAME":"EARTH","PERIAPSIS":"545.782","GP_ID":"184283640","CLASSIFICATION_TYPE":"U","MEAN_MOTION_DOT":"0.00000353"}];
